[
  {
    "OBJECT_NAME": "STARLINK-4609",
    "OBJECT_ID": "22104AH",
    "EPOCH": "2025-11-11T05:49:49.567584",
    "MEAN_MOTION": 15.08846754,
    "ECCENTRICITY": 0.0001699,
    "INCLINATION": 53.2158,
    "RA_OF_ASC_NODE": 45.8402,
    "ARG_OF_PERICENTER": 88.2094,
    "MEAN_ANOMALY": 271.9093,
    "EPHEMERIS_TYPE": 0,
    "CLASSIFICATION_TYPE": "U",
    "NORAD_CAT_ID": 53619,
    "ELEMENT_SET_NO": 999,
    "REV_AT_EPOCH": 17775,
    "BSTAR": 0.00018010000000000001,
    "MEAN_MOTION_DOT": 2.58e-05,
    "MEAN_MOTION_DDOT": 0.0,
    "TLE_LINE1": "1 53619U 22104AH  25315.24293481  .00002580  00000+0  18010-3 0  9999",
    "TLE_LINE2": "2 53619  53.2158  45.8402 0001699  88.2094 271.9093 15.08846754177755",
    "COMMENT": "Grouped by shell and plane from TLE"
  },
  {
    "OBJECT_NAME": "STARLINK-4615",
    "OBJECT_ID": "22104AJ",
    "EPOCH": "2025-11-10T15:10:08.646528",
    "MEAN_MOTION": 15.0879206,
    "ECCENTRICITY": 0.0001937,
    "INCLINATION": 53.2177,
    "RA_OF_ASC_NODE": 48.4275,
    "ARG_OF_PERICENTER": 102.613,
    "MEAN_ANOMALY": 257.5079,
    "EPHEMERIS_TYPE": 0,
    "CLASSIFICATION_TYPE": "U",
    "NORAD_CAT_ID": 53620,
    "ELEMENT_SET_NO": 999,
    "REV_AT_EPOCH": 17777,
    "BSTAR": 0.00079787,
    "MEAN_MOTION_DOT": 0.00012416,
    "MEAN_MOTION_DDOT": 0.0,
    "TLE_LINE1": "1 53620U 22104AJ  25314.63204452  .00012416  00000+0  79787-3 0  9990",
    "TLE_LINE2": "2 53620  53.2177  48.4275 0001937 102.6130 257.5079 15.08792060177778",
    "COMMENT": "Grouped by shell and plane from TLE"
  },
  {
    "OBJECT_NAME": "STARLINK-4608",
    "OBJECT_ID": "22104AK",
    "EPOCH": "2025-11-10T15:26:03.428736",
    "MEAN_MOTION": 15.08836858,
    "ECCENTRICITY": 0.0001361,
    "INCLINATION": 53.2176,
    "RA_OF_ASC_NODE": 48.4946,
    "ARG_OF_PERICENTER": 89.8459,
    "MEAN_ANOMALY": 270.2689,
    "EPHEMERIS_TYPE": 0,
    "CLASSIFICATION_TYPE": "U",
    "NORAD_CAT_ID": 53621,
    "ELEMENT_SET_NO": 999,
    "REV_AT_EPOCH": 17766,
    "BSTAR": 0.00010478999999999999,
    "MEAN_MOTION_DOT": 1.38e-05,
    "MEAN_MOTION_DDOT": 0.0,
    "TLE_LINE1": "1 53621U 22104AK  25314.64309524  .00001380  00000+0  10479-3 0  9999",
    "TLE_LINE2": "2 53621  53.2176  48.4946 0001361  89.8459 270.2689 15.08836858177665",
    "COMMENT": "Grouped by shell and plane from TLE"
  },
  {
    "OBJECT_NAME": "STARLINK-4568",
    "OBJECT_ID": "22104AL",
    "EPOCH": "2025-11-11T06:32:09.213504",
    "MEAN_MOTION": 15.08845495,
    "ECCENTRICITY": 0.0001216,
    "INCLINATION": 53.2182,
    "RA_OF_ASC_NODE": 45.322,
    "ARG_OF_PERICENTER": 86.1749,
    "MEAN_ANOMALY": 273.9382,
    "EPHEMERIS_TYPE": 0,
    "CLASSIFICATION_TYPE": "U",
    "NORAD_CAT_ID": 53622,
    "ELEMENT_SET_NO": 999,
    "REV_AT_EPOCH": 17787,
    "BSTAR": 9.665300000000001e-05,
    "MEAN_MOTION_DOT": 1.251e-05,
    "MEAN_MOTION_DDOT": 0.0,
    "TLE_LINE1": "1 53622U 22104AL  25315.27232886  .00001251  00000+0  96653-4 0  9992",
    "TLE_LINE2": "2 53622  53.2182  45.3220 0001216  86.1749 273.9382 15.08845495177875",
    "COMMENT": "Grouped by shell and plane from TLE"
  },
  {
    "OBJECT_NAME": "STARLINK-4573",
    "OBJECT_ID": "22104AM",
    "EPOCH": "2025-11-11T07:09:18.113184",
    "MEAN_MOTION": 15.088415,
    "ECCENTRICITY": 0.0001466,
    "INCLINATION": 53.2189,
    "RA_OF_ASC_NODE": 45.4755,
    "ARG_OF_PERICENTER": 99.7261,
    "MEAN_ANOMALY": 260.3897,
    "EPHEMERIS_TYPE": 0,
    "CLASSIFICATION_TYPE": "U",
    "NORAD_CAT_ID": 53623,
    "ELEMENT_SET_NO": 999,
    "REV_AT_EPOCH": 17787,
    "BSTAR": 0.00010036000000000001,
    "MEAN_MOTION_DOT": 1.31e-05,
    "MEAN_MOTION_DDOT": 0.0,
    "TLE_LINE1": "1 53623U 22104AM  25315.29812631  .00001310  00000+0  10036-3 0  9993",
    "TLE_LINE2": "2 53623  53.2189  45.4755 0001466  99.7261 260.3897 15.08841500177877",
    "COMMENT": "Grouped by shell and plane from TLE"
  },
  {
    "OBJECT_NAME": "STARLINK-4596",
    "OBJECT_ID": "22104AN",
    "EPOCH": "2025-11-11T06:53:22.543008",
    "MEAN_MOTION": 15.08840531,
    "ECCENTRICITY": 0.0001595,
    "INCLINATION": 53.2173,
    "RA_OF_ASC_NODE": 45.4083,
    "ARG_OF_PERICENTER": 102.5574,
    "MEAN_ANOMALY": 257.5597,
    "EPHEMERIS_TYPE": 0,
    "CLASSIFICATION_TYPE": "U",
    "NORAD_CAT_ID": 53624,
    "ELEMENT_SET_NO": 999,
    "REV_AT_EPOCH": 17787,
    "BSTAR": 3.0865e-05,
    "MEAN_MOTION_DOT": 2.03e-06,
    "MEAN_MOTION_DDOT": 0.0,
    "TLE_LINE1": "1 53624U 22104AN  25315.28706647  .00000203  00000+0  30865-4 0  9995",
    "TLE_LINE2": "2 53624  53.2173  45.4083 0001595 102.5574 257.5597 15.08840531177876",
    "COMMENT": "Grouped by shell and plane from TLE"
  },
  {
    "OBJECT_NAME": "STARLINK-4554",
    "OBJECT_ID": "22104AQ",
    "EPOCH": "2025-11-11T06:37:27.712416",
    "MEAN_MOTION": 15.08841039,
    "ECCENTRICITY": 0.0001479,
    "INCLINATION": 53.2179,
    "RA_OF_ASC_NODE": 45.339,
    "ARG_OF_PERICENTER": 103.7602,
    "MEAN_ANOMALY": 256.3555,
    "EPHEMERIS_TYPE": 0,
    "CLASSIFICATION_TYPE": "U",
    "NORAD_CAT_ID": 53626,
    "ELEMENT_SET_NO": 999,
    "REV_AT_EPOCH": 17788,
    "BSTAR": 5.5369000000000005e-05,
    "MEAN_MOTION_DOT": 5.93e-06,
    "MEAN_MOTION_DDOT": 0.0,
    "TLE_LINE1": "1 53626U 22104AQ  25315.27601519  .00000593  00000+0  55369-4 0  9996",
    "TLE_LINE2": "2 53626  53.2179  45.3390 0001479 103.7602 256.3555 15.08841039177886",
    "COMMENT": "Grouped by shell and plane from TLE"
  },
  {
    "OBJECT_NAME": "STARLINK-4595",
    "OBJECT_ID": "22104AR",
    "EPOCH": "2025-11-11T06:48:04.490784",
    "MEAN_MOTION": 15.0884239,
    "ECCENTRICITY": 0.000139,
    "INCLINATION": 53.2187,
    "RA_OF_ASC_NODE": 45.3855,
    "ARG_OF_PERICENTER": 109.1799,
    "MEAN_ANOMALY": 250.9343,
    "EPHEMERIS_TYPE": 0,
    "CLASSIFICATION_TYPE": "U",
    "NORAD_CAT_ID": 53627,
    "ELEMENT_SET_NO": 999,
    "REV_AT_EPOCH": 17788,
    "BSTAR": 0.00025882,
    "MEAN_MOTION_DOT": 3.834e-05,
    "MEAN_MOTION_DDOT": 0.0,
    "TLE_LINE1": "1 53627U 22104AR  25315.28338531  .00003834  00000+0  25882-3 0  9996",
    "TLE_LINE2": "2 53627  53.2187  45.3855 0001390 109.1799 250.9343 15.08842390177887",
    "COMMENT": "Grouped by shell and plane from TLE"
  },
  {
    "OBJECT_NAME": "STARLINK-4600",
    "OBJECT_ID": "22104AS",
    "EPOCH": "2025-11-11T06:26:50.600544",
    "MEAN_MOTION": 15.08840851,
    "ECCENTRICITY": 0.0001872,
    "INCLINATION": 53.2182,
    "RA_OF_ASC_NODE": 45.2931,
    "ARG_OF_PERICENTER": 100.699,
    "MEAN_ANOMALY": 259.4213,
    "EPHEMERIS_TYPE": 0,
    "CLASSIFICATION_TYPE": "U",
    "NORAD_CAT_ID": 53628,
    "ELEMENT_SET_NO": 999,
    "REV_AT_EPOCH": 17788,
    "BSTAR": 5.419300000000001e-05,
    "MEAN_MOTION_DOT": 5.74e-06,
    "MEAN_MOTION_DDOT": 0.0,
    "TLE_LINE1": "1 53628U 22104AS  25315.26864121  .00000574  00000+0  54193-4 0  9990",
    "TLE_LINE2": "2 53628  53.2182  45.2931 0001872 100.6990 259.4213 15.08840851177881",
    "COMMENT": "Grouped by shell and plane from TLE"
  },
  {
    "OBJECT_NAME": "STARLINK-4602",
    "OBJECT_ID": "22104AT",
    "EPOCH": "2025-11-10T16:24:17.613216",
    "MEAN_MOTION": 15.08855009,
    "ECCENTRICITY": 0.000154,
    "INCLINATION": 53.2184,
    "RA_OF_ASC_NODE": 48.0392,
    "ARG_OF_PERICENTER": 84.1866,
    "MEAN_ANOMALY": 275.9302,
    "EPHEMERIS_TYPE": 0,
    "CLASSIFICATION_TYPE": "U",
    "NORAD_CAT_ID": 53629,
    "ELEMENT_SET_NO": 999,
    "REV_AT_EPOCH": 17779,
    "BSTAR": 0.00039926,
    "MEAN_MOTION_DOT": 6.074e-05,
    "MEAN_MOTION_DDOT": 0.0,
    "TLE_LINE1": "1 53629U 22104AT  25314.68353719  .00006074  00000+0  39926-3 0  9999",
    "TLE_LINE2": "2 53629  53.2184  48.0392 0001540  84.1866 275.9302 15.08855009177799",
    "COMMENT": "Grouped by shell and plane from TLE"
  },
  {
    "OBJECT_NAME": "STARLINK-4599",
    "OBJECT_ID": "22104AV",
    "EPOCH": "2025-11-11T06:21:32.241600",
    "MEAN_MOTION": 15.08840245,
    "ECCENTRICITY": 0.0001654,
    "INCLINATION": 53.2181,
    "RA_OF_ASC_NODE": 45.2694,
    "ARG_OF_PERICENTER": 101.4453,
    "MEAN_ANOMALY": 258.6725,
    "EPHEMERIS_TYPE": 0,
    "CLASSIFICATION_TYPE": "U",
    "NORAD_CAT_ID": 53631,
    "ELEMENT_SET_NO": 999,
    "REV_AT_EPOCH": 17788,
    "BSTAR": 4.4995000000000005e-05,
    "MEAN_MOTION_DOT": 4.28e-06,
    "MEAN_MOTION_DDOT": 0.0,
    "TLE_LINE1": "1 53631U 22104AV  25315.26495650  .00000428  00000+0  44995-4 0  9998",
    "TLE_LINE2": "2 53631  53.2181  45.2694 0001654 101.4453 258.6725 15.08840245177887",
    "COMMENT": "Grouped by shell and plane from TLE"
  },
  {
    "OBJECT_NAME": "STARLINK-4724",
    "OBJECT_ID": "22107C",
    "EPOCH": "2025-11-11T05:42:31.142880",
    "MEAN_MOTION": 15.08836113,
    "ECCENTRICITY": 0.0001047,
    "INCLINATION": 53.2196,
    "RA_OF_ASC_NODE": 40.771,
    "ARG_OF_PERICENTER": 84.3648,
    "MEAN_ANOMALY": 275.7464,
    "EPHEMERIS_TYPE": 0,
    "CLASSIFICATION_TYPE": "U",
    "NORAD_CAT_ID": 53702,
    "ELEMENT_SET_NO": 999,
    "REV_AT_EPOCH": 17721,
    "BSTAR": 0.00027291,
    "MEAN_MOTION_DOT": 4.058e-05,
    "MEAN_MOTION_DDOT": 0.0,
    "TLE_LINE1": "1 53702U 22107C   25315.23786045  .00004058  00000+0  27291-3 0  9990",
    "TLE_LINE2": "2 53702  53.2196  40.7710 0001047  84.3648 275.7464 15.08836113177218",
    "COMMENT": "Grouped by shell and plane from TLE"
  },
  {
    "OBJECT_NAME": "STARLINK-4667",
    "OBJECT_ID": "22107H",
    "EPOCH": "2025-11-11T05:58:27.139008",
    "MEAN_MOTION": 15.0883654,
    "ECCENTRICITY": 0.0001096,
    "INCLINATION": 53.2202,
    "RA_OF_ASC_NODE": 40.8351,
    "ARG_OF_PERICENTER": 77.723,
    "MEAN_ANOMALY": 282.3885,
    "EPHEMERIS_TYPE": 0,
    "CLASSIFICATION_TYPE": "U",
    "NORAD_CAT_ID": 53707,
    "ELEMENT_SET_NO": 999,
    "REV_AT_EPOCH": 17718,
    "BSTAR": 0.0,
    "MEAN_MOTION_DOT": -1.096e-05,
    "MEAN_MOTION_DDOT": 0.0,
    "TLE_LINE1": "1 53707U 22107H   25315.24892522 -.00001096  00000+0 -50802-4 0  9990",
    "TLE_LINE2": "2 53707  53.2202  40.8351 0001096  77.7230 282.3885 15.08836540177181",
    "COMMENT": "Grouped by shell and plane from TLE"
  }
]